AL MUNTHER              
1 63240U 25052AG  26068.64540749  .00017933  00000+0  65015-3 0  9992
2 63240  97.4001 323.9152 0008027 130.7043 229.4895 15.28381521 54798
STARLINK-34098          
1 64080U 25107S   26068.43440538  .00028649  00000+0  10460-2 0  9997
2 64080  42.9976 202.7882 0002037 184.0291 176.0544 15.27598783 46083
